COMMENT,ORIGINATOR,NORAD_CAT_ID,OBJECT_NAME,OBJECT_TYPE,CLASSIFICATION_TYPE,INTLDES,EPOCH,EPOCH_MICROSECONDS,MEAN_MOTION,ECCENTRICITY,INCLINATION,RA_OF_ASC_NODE,ARG_OF_PERICENTER,MEAN_ANOMALY,EPHEMERIS_TYPE,ELEMENT_SET_NO,REV_AT_EPOCH,BSTAR,MEAN_MOTION_DOT,MEAN_MOTION_DDOT,FILE,TLE_LINE0,TLE_LINE1,TLE_LINE2,OBJECT_ID,OBJECT_NUMBER,SEMIMAJOR_AXIS,PERIOD,APOGEE,PERIGEE
"GENERATED VIA SPACETRACK.ORG API","JSPOC","37138","COSMOS 2465 (GLONASS)","PAYLOAD","U","10041B","2016-01-12 03:31:48","296064","2.13102756","0.0033361","64.9199","322.0822","171.625","278.4032","0","999","4172","0","-2.7e-07","0","1979274","0 COSMOS 2465 (GLONASS)","1 37138U 10041B   16012.14708676 -.00000027  00000-0  00000+0 0  9996","2 37138  64.9199 322.0822 0033361 171.6250 278.4032  2.13102756 41726","2010-041B","37138","25507.964","675.730","19214.926","19044.731"
"GENERATED VIA SPACETRACK.ORG API","JSPOC","40311","KUAIZHOU 2 (KZ-2)","PAYLOAD","U","14073A","2016-01-12 03:32:00","923424","15.88435364","0.0020101","96.4995","116.8601","46.5839","26.3695","0","999","6634","0.00056566","0.00157705","1.0442e-05","1979185","0 KUAIZHOU 2 (KZ-2)","1 40311U 14073A   16012.14723291  .00157705  10442-4  56566-3 0  9994","2 40311  96.4995 116.8601 0020101  46.5839  26.3695 15.88435364 66342","2014-073A","40311","6684.806","90.655","320.108","293.233"
"GENERATED VIA SPACETRACK.ORG API","JSPOC","36745","ARABSAT 5A","PAYLOAD","U","10032B","2016-01-12 03:32:09","526272","1.00272426","0.0003235","0.0532","18.5227","270.593","265.4678","0","999","2043","0","1.53e-06","0","1979298","0 ARABSAT 5A","1 36745U 10032B   16012.14733248  .00000153  00000-0  00000+0 0  9991","2 36745   0.0532  18.5227 0003235 270.5930 265.4678  1.00272426 20432","2010-032B","36745","42164.552","1436.087","35800.057","35772.777"
"GENERATED VIA SPACETRACK.ORG API","JSPOC","9846","COSMOS 894","PAYLOAD","U","77013A","2016-01-12 03:32:30","841152","13.73906924","0.003034","82.9431","33.4498","19.8376","43.9455","0","999","94936","1.9734e-05","3.4e-07","0","1979233","0 COSMOS 894","1 09846U 77013A   16012.14757918  .00000034  00000-0  19734-4 0  9992","2 09846  82.9431  33.4498 0030340  19.8376  43.9455 13.73906924949366","1977-013A","9846","7363.714","104.810","1007.921","963.238"
"GENERATED VIA SPACETRACK.ORG API","JSPOC","20237","COSMOS 2043","PAYLOAD","U","89074F","2016-01-12 03:33:08","426016","12.63433651","0.0003024","82.5778","139.4496","206.8124","240.1194","0","999","21412","2.6524e-05","1.5e-07","0","1979208","0 COSMOS 2043","1 20237U 89074F   16012.14801419  .00000015  00000-0  26524-4 0  9999","2 20237  82.5778 139.4496 0003024 206.8124 240.1194 12.63433651214126","1989-074F","20237","7786.940","113.975","1411.160","1406.451"
"GENERATED VIA SPACETRACK.ORG API","JSPOC","36037","PROBA 2","PAYLOAD","U","09059B","2016-01-12 03:33:33","536448","14.52916488","0.0013989","98.2662","207.3664","139.7259","220.4976","0","999","32832","3.4836e-05","9.9e-07","0","1979226","0 PROBA 2","1 36037U 09059B   16012.14830482  .00000099  00000-0  34836-4 0  9998","2 36037  98.2662 207.3664 0013989 139.7259 220.4976 14.52916488328324","2009-059B","36037","7094.275","99.110","726.065","706.216"
"GENERATED VIA SPACETRACK.ORG API","JSPOC","35682","DUBAISAT 1","PAYLOAD","U","09041B","2016-01-12 03:33:53","216640","14.68373594","0.0012433","97.8709","248.5713","25.8051","334.3781","0","999","34559","5.9628e-05","2.98e-06","0","1979270","0 DUBAISAT 1","1 35682U 09041B   16012.14853260  .00000298  00000-0  59628-4 0  9990","2 35682  97.8709 248.5713 0012433  25.8051 334.3781 14.68373594345595","2009-041B","35682","7044.401","98.067","675.025","657.508"
"GENERATED VIA SPACETRACK.ORG API","JSPOC","39077","GLOBALSTAR M095","PAYLOAD","U","13005F","2016-01-12 03:33:55","215072","12.62257189","1.69e-05","51.9813","2.1274","338.9375","21.1485","0","999","13520","1.3746e-06","-1.04e-06","0","1979223","0 GLOBALSTAR M095","1 39077U 13005F   16012.14855573 -.00000104  00000-0  13746-5 0  9995","2 39077  51.9813   2.1274 0000169 338.9375  21.1485 12.62257189135200","2013-005F","39077","7791.778","114.081","1413.775","1413.511"
"GENERATED VIA SPACETRACK.ORG API","JSPOC","27421","SPOT 5","PAYLOAD","U","02021A","2016-01-12 03:33:55","507104","14.51745989","0.01364","98.4813","66.7117","124.7692","236.6447","0","999","70992","5.4848e-05","1.96e-06","0","1979277","0 SPOT 5","1 27421U 02021A   16012.14855911  .00000196  00000-0  54848-4 0  9994","2 27421  98.4813  66.7117 0136400 124.7692 236.6447 14.51745989709926","2002-021A","27421","7098.088","99.190","816.771","623.135"
"GENERATED VIA SPACETRACK.ORG API","JSPOC","40737","FLOCK 1E 10","PAYLOAD","U","98067GP","2016-01-12 03:33:57","730176","15.68043727","0.0003023","51.6397","112.8171","268.6279","160.2711","0","999","2826","0.00043144","0.00048595","0","1979266","0 FLOCK 1E 10","1 40737U 98067GP  16012.14858484  .00048595  00000-0  43144-3 0  9993","2 40737  51.6397 112.8171 0003023 268.6279 160.2711 15.68043727 28262","1998-067GP","40737","6742.636","91.834","366.539","362.462"
"GENERATED VIA SPACETRACK.ORG API","JSPOC","40421","SL-4 R/B","ROCKET BODY","U","15009B","2016-01-12 03:34:21","371808","15.87791296","0.0056385","97.6604","2.7432","329.2068","30.5898","0","999","4974","0.00056001","0.00170161","1.2495e-05","1979298","0 SL-4 R/B","1 40421U 15009B   16012.14885847  .00170161  12495-4  56001-3 0  9997","2 40421  97.6604   2.7432 0056385 329.2068  30.5898 15.87791296 49742","2015-009B","40421","6686.613","90.692","346.181","270.776"
"GENERATED VIA SPACETRACK.ORG API","JSPOC","19650","SL-16 R/B","ROCKET BODY","U","88102B","2016-01-12 03:34:53","357952","14.15729602","0.001665","70.9999","32.7715","258.8096","101.1156","0","999","40210","9.2329e-05","1.34e-06","0","1979217","0 SL-16 R/B","1 19650U 88102B   16012.14922868  .00000134  00000-0  92329-4 0  9997","2 19650  70.9999  32.7715 0016650 258.8096 101.1156 14.15729602402106","1988-102B","19650","7217.968","101.714","851.851","827.815"
"GENERATED VIA SPACETRACK.ORG API","JSPOC","16647","COSMOS 1736","PAYLOAD","U","86024A","2016-01-12 03:35:08","123712","13.79400521","0.0043649","64.9887","3.4192","348.7738","63.6214","0","999","50323","1.6185e-06","-8.6e-07","0","1979331","0 COSMOS 1736","1 16647U 86024A   16012.14939958 -.00000086  00000-0  16185-5 0  9993","2 16647  64.9887   3.4192 0043649 348.7738  63.6214 13.79400521503230","1986-024A","16647","7344.150","104.393","998.072","933.959"
"GENERATED VIA SPACETRACK.ORG API","JSPOC","39132","DOVE 2","PAYLOAD","U","13015C","2016-01-12 03:35:18","306816","15.05465154","0.0013447","64.874","130.7563","207.9211","213.5151","0","999","14987","0.0001444","1.912e-05","0","1979324","0 DOVE 2","1 39132U 13015C   16012.14951744  .00001912  00000-0  14440-3 0  9992","2 39132  64.8740 130.7563 0013447 207.9211 213.5151 15.05465154149878","2013-015C","39132","6928.215","95.651","559.396","540.763"
"GENERATED VIA SPACETRACK.ORG API","JSPOC","36400","COSMOS 2459 (GLONASS)","PAYLOAD","U","10007A","2016-01-12 03:35:52","974816","2.13102306","0.0027571","65.1754","82.4072","351.2958","28.1745","0","999","4565","0.0001","5e-08","0","1979214","0 COSMOS 2459 (GLONASS)","1 36400U 10007A   16012.14991869  .00000005  00000-0  10000-3 0  9997","2 36400  65.1754  82.4072 0027571 351.2958  28.1745  2.13102306 45656","2010-007A","36400","25508.000","675.731","19200.193","19059.536"
"GENERATED VIA SPACETRACK.ORG API","JSPOC","12785","COSMOS 1300","PAYLOAD","U","81082A","2016-01-12 03:36:01","258848","15.1551334","1.92e-05","82.5034","228.9425","121.5541","21.5781","0","999","87274","0.00010036","1.93e-05","0","1979323","0 COSMOS 1300","1 12785U 81082A   16012.15001457  .00001930  00000-0  10036-3 0  9991","2 12785  82.5034 228.9425 0000192 121.5541  21.5781 15.15513340872740","1981-082A","12785","6897.557","95.017","519.554","519.290"
"GENERATED VIA SPACETRACK.ORG API","JSPOC","40026","FLOCK 1C 7","PAYLOAD","U","14033S","2016-01-12 03:36:18","44640","14.88018162","0.0010753","97.9454","278.2165","216.635","143.4121","0","999","8487","0.00021814","1.948e-05","0","1979302","0 FLOCK 1C 7","1 40026U 14033S   16012.15020885  .00001948  00000-0  21814-3 0  9993","2 40026  97.9454 278.2165 0010753 216.6350 143.4121 14.88018162 84874","2014-033S","40026","6982.265","96.773","611.638","596.622"
"GENERATED VIA SPACETRACK.ORG API","JSPOC","40722","FLOCK 1E 2","PAYLOAD","U","98067GE","2016-01-12 03:36:29","730240","15.77538609","0.0003102","51.6362","109.0227","319.2048","112.4972","0","999","2852","0.00090435","0.00155901","0","1979222","0 FLOCK 1E 2","1 40722U 98067GE  16012.15034410  .00155901  00000-0  90435-3 0  9998","2 40722  51.6362 109.0227 0003102 319.2048 112.4972 15.77538609 28528","1998-067GE","40722","6715.553","91.281","339.502","335.335"
"GENERATED VIA SPACETRACK.ORG API","JSPOC","22079","ARIANE 42P R/B","ROCKET BODY","U","92052D","2016-01-12 03:36:36","508320","12.77840017","0.0074485","66.0653","246.6546","233.2299","270.7872","0","999","9296","0.00024902","-5e-08","0","1979242","0 ARIANE 42P R/B","1 22079U 92052D   16012.15042255 -.00000005  00000-0  24902-3 0  9998","2 22079  66.0653 246.6546 0074485 233.2299 270.7872 12.77840017 92965","1992-052D","22079","7728.303","112.690","1407.733","1292.604"
"GENERATED VIA SPACETRACK.ORG API","JSPOC","20465","COSMOS 2058","PAYLOAD","U","90010A","2016-01-12 03:36:44","572032","14.96949436","0.0014211","82.4887","29.5955","250.4957","109.4731","0","999","40722","7.1595e-05","8.5e-06","0","1979211","0 COSMOS 2058","1 20465U 90010A   16012.15051588  .00000850  00000-0  71595-4 0  9994","2 20465  82.4887  29.5955 0014211 250.4957 109.4731 14.96949436407227","1990-010A","20465","6954.465","96.195","586.213","566.447"
